[{"OBJECT_NAME":"TIANMU-1 20","OBJECT_ID":"2023-208B","EPOCH":"2026-03-09T21:50:45.859200","MEAN_MOTION":15.31029249,"ECCENTRICITY":0.00061925,"INCLINATION":97.4323,"RA_OF_ASC_NODE":185.4313,"ARG_OF_PERICENTER":324.1763,"MEAN_ANOMALY":35.9062,"EPHEMERIS_TYPE":0,"CLASSIFICATION_TYPE":"U","NORAD_CAT_ID":58661,"ELEMENT_SET_NO":999,"REV_AT_EPOCH":12222,"BSTAR":0.0003681641,"MEAN_MOTION_DOT":0.00010969,"MEAN_MOTION_DDOT":0},{"OBJECT_NAME":"STARLINK-33629","OBJECT_ID":"2025-063AB","EPOCH":"2026-03-09T05:37:41.873088","MEAN_MOTION":15.30202428,"ECCENTRICITY":0.00012533,"INCLINATION":53.1601,"RA_OF_ASC_NODE":52.1663,"ARG_OF_PERICENTER":81.3819,"MEAN_ANOMALY":278.7324,"EPHEMERIS_TYPE":0,"CLASSIFICATION_TYPE":"U","NORAD_CAT_ID":63388,"ELEMENT_SET_NO":999,"REV_AT_EPOCH":5472,"BSTAR":0.00090478826,"MEAN_MOTION_DOT":0.00026536,"MEAN_MOTION_DDOT":0}]
